C/2017 T2 (PANSTARRS),e,57.2849,64.4377,92.7801,1592,0.0000155,0.99899269,0.0000,05/06.0179/2020,2000,g  5.0,4.0
# From MPC115882
P/2017 TW13 (Lemmon),e,44.8828,322.1247,120.0156,7.137429,0.0516882,0.71066455,130.7328,05/27.0/2025,2000,g 15.0,2.0
# From MPEC 2022-K19
P/2017 U3 (PANSTARRS),e,15.9221,165.0575,296.4470,4.919646,0.0903240,0.10083004,201.5979,05/27.0/2025,2000,g 11.0,4.0
# From MPEC 2023-A50
C/2017 U7 (PANSTARRS),h,09/16.2390/2019,142.6393,276.3201,326.4205,1.002735,6.419567,2000,8.3,2.0
# From MPC114601
P/2017 W3 (Gibbs),e,18.1878,210.0702,327.7717,7.818609,0.0450827,0.50703347,119.3050,05/27.0/2025,2000,g 10.5,4.0
# From MPEC 2024-DC6
C/2017 Y2 (PANSTARRS),h,11/04.9240/2020,128.4480,66.0302,147.8112,1.001090,4.621670,2000,15.0,4.0
# From MPC111770
P/2017 Y3 (Leonard),e,27.6292,154.0185,67.3319,9.794772,0.0321523,0.86961209,85.7381,05/27.0/2025,2000,g 16.5,4.0
# From MPEC 2021-P47
C/2018 A3 (ATLAS),e,139.6071,194.3562,86.5093,345.5108,0.0001535,0.99046873,0.0000,01/08.6853/2019,2000,g  8.5,4.0
# From MPC109147
P/2018 A5 (PANSTARRS),e,23.6241,87.7836,359.5524,5.624342,0.0738918,0.52449191,206.6545,05/27.0/2025,2000,g 15.0,4.0
# From MPEC 2024-JU4
C/2018 A6 (Gibbs),e,77.1585,340.4567,264.2686,14.99705,0.0169705,0.79883580,36.4478,05/27.0/2025,2000,g  9.0,4.0
# From MPC114601
P/2018 C1 (Lemmon-Read),e,5.1015,270.1964,235.8037,5.649498,0.0733989,0.53265495,194.4075,05/27.0/2025,2000,g 13.5,4.0
# From MPEC 2022-M88
C/2018 DO4 (Lemmon),e,160.4455,251.3946,176.4199,25.52295,0.0076438,0.90511893,16.1277,05/27.0/2025,2000,g 11.0,4.0
# From MPEC 2021-R75
C/2018 F1 (Grauer),e,46.1726,177.3207,71.4271,217.2189,0.0003079,0.98622855,0.0000,12/10.1426/2018,2000,g 11.5,4.0
# From MPEC 2023-A50
C/2018 F4 (PANSTARRS),e,78.1361,26.5377,263.1956,1757,0.0000134,0.99803716,0.0000,11/30.8927/2019,2000,g 11.0,6.0
# From MPEC 2021-Y10
C/2018 F4-A,e,78.1363,26.5379,263.1924,1711,0.0000139,0.99798421,0.0000,11/30.8808/2019,2000,g 11.0,6.0
# From MPEC 2023-D41
C/2018 F4-B,e,78.1372,26.5374,263.1781,1789,0.0000130,0.99807297,0.0000,11/30.8176/2019,2000,g 11.0,6.0
# From MPC114602
P/2018 H2 (PANSTARRS),e,7.4172,67.9850,119.1965,4.408590,0.1064767,0.53986521,289.6954,05/27.0/2025,2000,g 16.6,2.0
# From MPEC 2021-R75
C/2018 KJ3 (Lemmon),e,136.6207,91.6951,217.5354,697.6820,0.0000535,0.99481498,0.0000,09/08.7661/2019,2000,g 12.2,2.0
# From MPEC 2025-J92
P/2018 L1 (PANSTARRS),e,10.5748,268.5823,17.9535,3.657840,0.1408858,0.48130281,337.0960,05/27.0/2025,2000,g 15.0,4.0
# From MPEC 2021-P47
C/2018 L2 (ATLAS),e,67.2161,242.9895,56.3448,235.9363,0.0002720,0.99270321,0.0000,11/29.5387/2018,2000,g 10.0,4.0
# From MPC114603
P/2018 L4 (PANSTARRS),e,26.5940,145.2217,140.5048,4.948721,0.0895292,0.65828028,223.5889,05/27.0/2025,2000,g 17.5,4.0
# From MPEC 2022-YN2
C/2018 N2 (ASASSN),h,11/12.0819/2019,77.4977,24.5263,25.3233,1.002010,3.135478,2000,6.0,4.0
# From MPC114603
P/2018 P4 (PANSTARRS),e,23.0786,353.1584,8.5162,6.695759,0.0568859,0.44905742,136.1257,05/27.0/2025,2000,g 12.0,4.0
# From MPEC 2021-P47
C/2018 P5 (PANSTARRS),e,7.2464,216.2702,132.0342,12.84450,0.0214106,0.64160091,48.8649,05/27.0/2025,2000,g 11.0,4.0
# From MPC118841
C/2018 R3 (Lemmon),e,69.6878,324.3644,112.8042,1790,0.0000130,0.99928247,0.0000,06/08.0104/2019,2000,g  9.5,4.0
# From MPC114603
C/2018 R5 (Lemmon),e,103.6840,171.2679,178.2720,22.98033,0.0089468,0.84169539,20.8303,05/27.0/2025,2000,g 11.5,4.0
# From MPEC 2022-QC6
C/2018 S2 (TESS),e,64.1108,85.1076,290.9491,14.36970,0.0180939,0.61787807,43.3278,05/27.0/2025,2000,g  7.5,4.0
# From MPEC 2024-JU4
C/2018 U1 (Lemmon),h,11/02.1598/2021,108.3258,75.5140,180.3548,1.000160,4.986092,2000,5.0,4.0
# From MPC114604
C/2018 V1 (Machholz-Fujikawa-Iwamoto),h,12/04.1066/2018,144.2009,129.6023,89.5739,1.000460,0.390737,2000,12.0,4.0
# From MPC115884
C/2018 V2 (ATLAS),e,159.1615,357.2212,319.2866,25.24814,0.0077689,0.90128995,18.4406,05/27.0/2025,2000,g 15.0,4.0
# From MPEC 2025-A40
P/2018 VN2 (Leonard),e,18.2570,226.4383,138.9249,4.061228,0.1204254,0.47815982,306.3220,05/27.0/2025,2000,g 15.0,4.0
# From MPEC 2025-A40
A/2018 V3,e,164.9136,308.8197,3.5765,127.2770,0.0006864,0.98954991,0.0000,09/10.4647/2019,2000,g 15.7,2.0
# From MPEC 2022-M21
C/2018 V4 (Africano),e,69.0429,78.2465,0.0970,215.9837,0.0003105,0.98516703,0.0000,03/02.3949/2019,2000,g 12.5,4.0
# From MPEC 2021-P47
P/2018 V5 (Trujillo-Sheppard),e,10.5777,171.2929,260.8866,8.981126,0.0366191,0.47578213,88.7952,05/27.0/2025,2000,g 12.5,4.0
# From MPEC 2021-P47
C/2018 W1 (Catalina),e,83.3971,233.6332,251.1670,21.74112,0.0097226,0.93783395,21.4394,05/27.0/2025,2000,g 15.5,2.0
# From MPEC 2021-P47
C/2018 W2 (Africano),h,09/05.7074/2019,116.5387,181.9786,158.2364,1.000941,1.465435,2000,9.5,4.0
# From MPEC 2023-M14
A/2018 W3,e,104.8381,251.6881,313.8660,701.7552,0.0000530,0.99389798,0.0000,04/13.1608/2021,2000,g 10.7,2.0
# From MPC119996
C/2018 X2 (Fitzsimmons),e,23.1070,340.6373,162.0060,140.8417,0.0005897,0.98501094,0.0000,07/09.8087/2019,2000,g 12.0,4.0
# From MPC114604
C/2018 X3 (PANSTARRS),e,43.4259,78.7967,359.8653,12.41168,0.0225402,0.78290545,52.6849,05/27.0/2025,2000,g 14.5,4.0
# From MPEC 2024-A43
C/2018 Y1 (Iwamoto),e,160.4816,147.3380,357.8665,126.3627,0.0006939,0.98976636,0.0000,02/03.4046/2019,2000,g 11.5,4.0
# From MPC114605
P/2018 Y2 (Africano),e,11.6952,297.1176,162.3864,7.457281,0.0483987,0.48001560,112.9825,05/27.0/2025,2000,g 11.5,4.0
# From MPC114605
P/2019 A1 (PANSTARRS),e,13.7717,312.2110,150.7850,5.112465,0.0852626,0.57029487,206.0242,05/27.0/2025,2000,g 16.0,4.0
# From MPEC 2021-P47
P/2019 A2 (ATLAS),e,14.8733,139.3676,323.9553,5.710471,0.0722264,0.38327695,171.5950,05/27.0/2025,2000,g 10.5,4.0
# From MPEC 2022-M21
P/2019 A3 (PANSTARRS),e,15.3558,31.2752,325.6618,3.146349,0.1766013,0.26748008,79.5123,05/27.0/2025,2000,g 16.0,4.0
# From MPEC 2022-L66
P/2019 A4 (PANSTARRS),e,13.3058,119.3537,343.2348,2.614532,0.2331380,0.08741463,189.8476,05/27.0/2025,2000,g 15.0,4.0
# From MPEC 2021-P47
C/2019 A5 (PANSTARRS),e,67.5509,146.5150,355.8245,21.50364,0.0098841,0.70644369,21.5571,05/27.0/2025,2000,g  9.5,4.0
# From MPC114605
P/2019 A6 (Lemmon-PANSTARRS),e,33.2979,280.1738,156.2497,5.356812,0.0794959,0.64036420,195.4808,05/27.0/2025,2000,g 16.0,4.0
# From MPEC 2025-GB9
P/2019 A8 (PANSTARRS),e,2.3015,111.5293,46.6883,3.415588,0.1561370,0.37587195,8.7523,05/27.0/2025,2000,g 16.0,4.0
# From MPC118842
C/2019 A9 (PANSTARRS),e,84.3980,278.4700,237.8795,39.30616,0.0039996,0.96370443,8.5223,05/27.0/2025,2000,g 15.0,4.0
# From MPEC 2022-L66
C/2019 B1 (Africano),e,123.4911,290.2348,174.8252,139.6591,0.0005972,0.98851843,0.0000,03/18.2626/2019,2000,g 16.0,4.0
# From MPC115885
P/2019 B2 (Groeller),e,16.9518,175.6552,0.6018,3.928206,0.1265939,0.35771364,279.1874,05/27.0/2025,2000,g 14.5,4.0
# From MPEC 2024-JU4
C/2019 B3 (PANSTARRS),e,66.6025,358.4026,263.9971,3703,0.0000044,0.99815579,0.0000,01/19.6037/2021,2000,g  5.5,4.0
# From MPEC 2021-P47
C/2019 C1 (ATLAS),e,36.0385,212.3703,319.0164,687.2387,0.0000547,0.99044380,0.0000,05/04.5411/2020,2000,g 10.0,4.0
# From MPEC 2022-O08
C/2019 D1 (Flewelling),e,34.0104,231.6655,70.7173,136.6135,0.0006173,0.98834592,0.0000,05/08.8469/2019,2000,g 13.0,4.0
# From MPC182878
C/2019 E3 (ATLAS),e,84.3143,347.1964,280.7186,5396,0.0000025,0.99808878,0.0000,11/15.6218/2023,2000,g  2.5,4.0
# From MPEC 2024-GJ3
C/2019 F1 (ATLAS-Africano),h,06/21.1912/2021,54.2515,38.6640,251.3052,1.000332,3.608409,2000,5.5,4.0
# From MPEC 2025-A40
C/2019 F2 (ATLAS),e,19.3338,175.3479,11.6111,16.55707,0.0146295,0.86475876,30.5502,05/27.0/2025,2000,g 12.0,4.0
# From MPEC 2024-E01
C/2019 G2 (PANSTARRS),e,159.2522,208.2345,82.7784,401.3585,0.0001226,0.99425553,0.0000,12/06.5083/2019,2000,g 15.0,4.0
# From MPEC 2022-VC5
A/2019 G3,e,156.8084,49.8941,161.7327,17.11650,0.0139181,0.83427820,32.9342,05/27.0/2025,2000,g 17.1,2.0
# From MPC114607
P/2019 GG21 (PANSTARRS),e,6.0832,340.5654,208.5910,7.468732,0.0482874,0.47165365,106.6836,05/27.0/2025,2000,g 12.0,4.0
# From MPEC 2022-M21
C/2019 H1 (NEOWISE),e,104.3578,269.3119,19.2434,228.3261,0.0002857,0.99194139,0.0000,04/26.9037/2019,2000,g 15.5,4.0
# From MPEC 2023-A50
C/2019 J1 (Lemmon),e,24.5225,98.2352,167.5723,66.50758,0.0018172,0.96268229,4.0761,05/27.0/2025,2000,g 12.0,4.0
# From MPEC 2021-R75
C/2019 J2 (Palomar),e,105.2148,25.4668,98.5522,160.1669,0.0004862,0.98929626,0.0000,07/21.1380/2019,2000,g 13.0,4.0
# From MPC117071
C/2019 J3 (ATLAS),e,131.2942,270.6552,16.4939,26373,0.0000002,0.99991045,0.0000,08/01.9549/2019,2000,g 13.5,4.0
# From MPEC 2022-M21
C/2019 JU6 (ATLAS),e,148.3005,21.6900,94.7774,15784,0.0000005,0.99987127,0.0000,06/02.8894/2019,2000,g 14.5,4.0
# From MPEC 2022-O08
C/2019 K1 (ATLAS),e,87.0177,73.3111,265.7801,2978,0.0000061,0.99932133,0.0000,02/10.9419/2020,2000,g 10.0,4.0
# From MPC119997
C/2019 K4 (Ye),e,105.2882,180.2939,140.0198,1627,0.0000150,0.99860110,0.0000,06/15.2920/2019,2000,g 12.5,4.0
# From MPEC 2021-P47
C/2019 K5 (Young),e,15.2931,177.2744,175.1433,168.4048,0.0004510,0.98779843,0.0000,06/21.3708/2019,2000,g 13.0,4.0
# From MPEC 2021-P47
C/2019 K6 (PANSTARRS),e,132.3889,42.9803,187.4344,936.1360,0.0000344,0.99581532,0.0000,05/18.5997/2020,2000,g 11.5,4.0
# From MPEC 2024-GJ3
C/2019 K7 (Smith),h,06/17.1488/2020,103.4788,308.0349,27.3590,1.000367,4.474397,2000,6.0,4.0
# From MPEC 2021-R75
C/2019 K8 (ATLAS),e,93.0500,290.9902,85.3718,1687,0.0000142,0.99810408,0.0000,07/20.2304/2019,2000,g 11.5,4.0
# From MPEC 2023-A50
C/2019 L1 (PANSTARRS),e,9.9738,254.4272,50.0128,9.818462,0.0320360,0.70411054,67.9096,05/27.0/2025,2000,g 13.5,4.0
# From MPC115886
C/2019 L2 (NEOWISE),e,152.1506,12.5810,18.8496,25.14651,0.0078161,0.93553138,17.5486,05/27.0/2025,2000,g 16.0,4.0
# From MPEC 2024-GJ3
P/2019 LD2 (ATLAS),e,11.6086,178.7877,116.5193,5.170170,0.0838391,0.13092061,162.8820,05/27.0/2025,2000,g  8.5,4.0
# From MPEC 2025-J92
C/2019 L3 (ATLAS),h,01/10.1078/2022,48.3457,290.7187,171.7451,1.003119,3.558427,2000,4.5,4.0
# From MPEC 2024-YC7
